48234,ONEWEB-0199,2021,109.55,148.0,+,87.9,Active,1,LEO,Russia,UK,Commercial,Communications,Soyuz,1 48234U 21031AA  24183.60204008  .00000200  00000+0  50405-3 0  9994,2 48234  87.8959  72.0579 0002081  79.0089 281.1275 13.14501889154256,13.14501889,0.0002081,LEO
48235,ONEWEB-0203,2021,109.55,148.0,+,87.9,Active,1,LEO,Russia,UK,Commercial,Communications,Soyuz,1 48235U 21031AB  24183.44028265  .00000199  00000+0  50222-3 0  9990,2 48235  87.8958  72.0916 0002279  70.7499 289.3877 13.14506128154241,13.14506128,0.0002279,LEO
48236,ONEWEB-0197,2021,109.55,148.0,+,87.9,Active,1,LEO,Russia,UK,Commercial,Communications,Soyuz,1 48236U 21031AC  24183.41569626 -.00000391  00000+0 -10896-2 0  9997,2 48236  87.8958  72.1050 0001902  90.2847 269.8501 13.14503034154158,13.14503034,0.0001902,LEO
48237,ONEWEB-0194,2021,109.55,148.0,+,87.9,Active,1,LEO,Russia,UK,Commercial,Communications,Soyuz,1 48237U 21031AD  24183.62265209  .00000048  00000+0  95504-4 0  9999,2 48237  87.8961  72.0570 0002141  76.3486 283.7882 13.14501281154350,13.14501281,0.0002141,LEO
48238,ONEWEB-0193,2021,109.55,148.0,+,87.9,Active,1,LEO,Russia,UK,Commercial,Communications,Soyuz,1 48238U 21031AE  24183.41014597 -.00000245  00000+0 -69426-3 0  9993,2 48238  87.8959  72.1073 0001920  74.0965 286.0376 13.14502015154279,13.14502015,0.000192,LEO
48239,ONEWEB-0191,2021,109.55,148.0,+,87.9,Active,1,LEO,Russia,UK,Commercial,Communications,Soyuz,1 48239U 21031AF  24183.42124468 -.00000427  00000+0 -11851-2 0  9994,2 48239  87.8955  72.0882 0001888  75.8033 284.3306 13.14502843154139,13.14502843,0.0001888,LEO
48240,ONEWEB-0195,2021,109.55,148.0,+,87.9,Active,1,LEO,Russia,UK,Commercial,Communications,Soyuz,1 48240U 21031AG  24183.62661759  .00000145  00000+0  35723-3 0  9997,2 48240  87.8959  72.0469 0001625  67.9821 292.1481 13.14500897154141,13.14500897,0.0001625,LEO
48241,ONEWEB-0201,2021,109.55,148.0,+,87.9,Active,1,LEO,Russia,UK,Commercial,Communications,Soyuz,1 48241U 21031AH  24183.61550696  .00000168  00000+0  41901-3 0  9994,2 48241  87.8960  72.0841 0001744  75.6721 284.4602 13.14504700154376,13.145047,0.0001744,LEO
